STARS (KUKAI)           
1 33498U 09002G   26068.71826512  .00006351  00000+0  58664-3 0  9998
2 33498  98.1461  12.0831 0009772 130.4363 229.7710 14.94938540923614
STARLINK-5067           
1 55653U 23021AB  26068.74396594 -.00000966  00000+0 -73128-4 0  9998
2 55653  70.0009 184.1529 0003580 271.6002  88.4747 14.98330333168804
